{"fetched_at":"2026-04-05T12:57:33Z","count":17389,"tles":[{"name":"MERIDIAN-M 21L","line1":"1 68571U 26071A   26093.32069436 -.00001265  00000+0  16587-2 0  9999","line2":"2 68571  62.7917 238.8364 7241466 284.9481  10.7459  1.98618778    13","category":"Other"}]}